CYGNUS NG-23            
1 65616U 25208A   26014.17653439  .00007605  00000+0  14457-3 0  9993
2 65616  51.6332 341.8911 0007762  16.2553 343.8684 15.49283642   221
DRAGONFLY               
1 65729U 98067XH  26014.14161089  .00306440  00000+0  10229-2 0  9994
2 65729  51.6210 328.0787 0007988 107.8610 252.3267 15.88809405 18280
1998-067XK              
1 65731U 98067XK  26013.12953435  .00109037  00000+0  76195-3 0  9996
2 65731  51.6285 337.1409 0004914  72.1641 287.9894 15.73432001 18076
RSP-03                  
1 65732U 98067XL  26014.06289930  .00166891  00000+0  86952-3 0  9996
2 65732  51.6258 330.5930 0005855  86.7746 273.3925 15.79873426 18255
GHS-01                  
1 65733U 98067XM  26014.09946779  .00781742  30126-3  13462-2 0  9990
2 65733  51.6220 326.2857 0007790 123.1933 236.9826 16.01749713 18318
YOTSUBA-KULOVER         
1 65941U 98067XN  26014.08667480  .00059567  00000+0  60128-3 0  9998
2 65941  51.6292 336.7934 0004047 101.1373 259.0077 15.64758146 14910
BOTAN                   
1 65942U 98067XP  26014.18145836  .00110159  00000+0  83178-3 0  9991
2 65942  51.6262 334.4147 0004802 100.6550 259.4989 15.71604384 14951
E-KAGAKU-1              
1 65943U 98067XQ  26014.08657756  .00058277  00000+0  58887-3 0  9991
2 65943  51.6308 336.7992 0002669 100.1600 259.9696 15.64745579 14916
HRC MONOBLOCK CAMERA    
1 66052U 98067XR  26014.09816778  .00025517  00000+0  35734-3 0  9992
2 66052  51.6307 339.8707 0001122 359.3584   0.7406 15.56619278 13879
HTV-X1                  
1 66174U 25241A   26014.17653439  .00007605  00000+0  14457-3 0  9990
2 66174  51.6332 341.8911 0007762  16.2553 343.8684 15.49283642   513
SZ-21 MODULE            
1 66515U 25246C   26013.73410762  .00022409  00000+0  22945-3 0  9995
2 66515  41.4739 180.5961 0001835 161.6783 198.4124 15.64448838  9450
SHENZHOU-22             
1 66645U 25272A   26014.23936438  .00012865  00000+0  15509-3 0  9990
2 66645  41.4651 179.1985 0011443 282.0781  77.8776 15.60498345267643
