CCSDS_OMM_VERS = 2.0
CREATION_DATE  = 
ORIGINATOR     = 

OBJECT_NAME    = CYGNUS NG-23
OBJECT_ID      = 2025-208A
CENTER_NAME    = EARTH
REF_FRAME      = TEME
TIME_SYSTEM    = UTC
MEAN_ELEMENT_THEORY = SGP/SGP4

EPOCH          = 2026-01-14T04:14:12.571296
MEAN_MOTION    = 15.49283642
ECCENTRICITY   = .00077627
INCLINATION    = 51.6332
RA_OF_ASC_NODE = 341.8911
ARG_OF_PERICENTER = 16.2553
MEAN_ANOMALY   = 343.8684

EPHEMERIS_TYPE = 0
CLASSIFICATION_TYPE = U
NORAD_CAT_ID   = 65616
ELEMENT_SET_NO = 999
REV_AT_EPOCH   = 22
BSTAR          = .14457162E-3
MEAN_MOTION_DOT = .7605E-4
MEAN_MOTION_DDOT = 0

CCSDS_OMM_VERS = 2.0
CREATION_DATE  = 
ORIGINATOR     = 

OBJECT_NAME    = DRAGONFLY
OBJECT_ID      = 1998-067XH
CENTER_NAME    = EARTH
REF_FRAME      = TEME
TIME_SYSTEM    = UTC
MEAN_ELEMENT_THEORY = SGP/SGP4

EPOCH          = 2026-01-14T03:23:55.180896
MEAN_MOTION    = 15.88809405
ECCENTRICITY   = .00079887
INCLINATION    = 51.6210
RA_OF_ASC_NODE = 328.0787
ARG_OF_PERICENTER = 107.8610
MEAN_ANOMALY   = 252.3267

EPHEMERIS_TYPE = 0
CLASSIFICATION_TYPE = U
NORAD_CAT_ID   = 65729
ELEMENT_SET_NO = 999
REV_AT_EPOCH   = 1828
BSTAR          = .10228988E-2
MEAN_MOTION_DOT = .30644E-2
MEAN_MOTION_DDOT = 0

CCSDS_OMM_VERS = 2.0
CREATION_DATE  = 
ORIGINATOR     = 

OBJECT_NAME    = 1998-067XK
OBJECT_ID      = 1998-067XK
CENTER_NAME    = EARTH
REF_FRAME      = TEME
TIME_SYSTEM    = UTC
MEAN_ELEMENT_THEORY = SGP/SGP4

EPOCH          = 2026-01-13T03:06:31.767840
MEAN_MOTION    = 15.73432001
ECCENTRICITY   = .00049147
INCLINATION    = 51.6285
RA_OF_ASC_NODE = 337.1409
ARG_OF_PERICENTER = 72.1641
MEAN_ANOMALY   = 287.9894

EPHEMERIS_TYPE = 0
CLASSIFICATION_TYPE = U
NORAD_CAT_ID   = 65731
ELEMENT_SET_NO = 999
REV_AT_EPOCH   = 1807
BSTAR          = .76195208E-3
MEAN_MOTION_DOT = .109037E-2
MEAN_MOTION_DDOT = 0

CCSDS_OMM_VERS = 2.0
CREATION_DATE  = 
ORIGINATOR     = 

OBJECT_NAME    = RSP-03
OBJECT_ID      = 1998-067XL
CENTER_NAME    = EARTH
REF_FRAME      = TEME
TIME_SYSTEM    = UTC
MEAN_ELEMENT_THEORY = SGP/SGP4

EPOCH          = 2026-01-14T01:30:34.499520
MEAN_MOTION    = 15.79873426
ECCENTRICITY   = .00058553
INCLINATION    = 51.6258
RA_OF_ASC_NODE = 330.5930
ARG_OF_PERICENTER = 86.7746
MEAN_ANOMALY   = 273.3925

EPHEMERIS_TYPE = 0
CLASSIFICATION_TYPE = U
NORAD_CAT_ID   = 65732
ELEMENT_SET_NO = 999
REV_AT_EPOCH   = 1825
BSTAR          = .86951535E-3
MEAN_MOTION_DOT = .166891E-2
MEAN_MOTION_DDOT = 0

CCSDS_OMM_VERS = 2.0
CREATION_DATE  = 
ORIGINATOR     = 

OBJECT_NAME    = GHS-01
OBJECT_ID      = 1998-067XM
CENTER_NAME    = EARTH
REF_FRAME      = TEME
TIME_SYSTEM    = UTC
MEAN_ELEMENT_THEORY = SGP/SGP4

EPOCH          = 2026-01-14T02:23:14.017056
MEAN_MOTION    = 16.01749713
ECCENTRICITY   = .00077907
INCLINATION    = 51.6220
RA_OF_ASC_NODE = 326.2857
ARG_OF_PERICENTER = 123.1933
MEAN_ANOMALY   = 236.9826

EPHEMERIS_TYPE = 0
CLASSIFICATION_TYPE = U
NORAD_CAT_ID   = 65733
ELEMENT_SET_NO = 999
REV_AT_EPOCH   = 1831
BSTAR          = .13461678E-2
MEAN_MOTION_DOT = .781742E-2
MEAN_MOTION_DDOT = .30126325E-3

CCSDS_OMM_VERS = 2.0
CREATION_DATE  = 
ORIGINATOR     = 

OBJECT_NAME    = YOTSUBA-KULOVER
OBJECT_ID      = 1998-067XN
CENTER_NAME    = EARTH
REF_FRAME      = TEME
TIME_SYSTEM    = UTC
MEAN_ELEMENT_THEORY = SGP/SGP4

EPOCH          = 2026-01-14T02:04:48.702720
MEAN_MOTION    = 15.64758146
ECCENTRICITY   = .00040472
INCLINATION    = 51.6292
RA_OF_ASC_NODE = 336.7934
ARG_OF_PERICENTER = 101.1373
MEAN_ANOMALY   = 259.0077

EPHEMERIS_TYPE = 0
CLASSIFICATION_TYPE = U
NORAD_CAT_ID   = 65941
ELEMENT_SET_NO = 999
REV_AT_EPOCH   = 1491
BSTAR          = .60127762E-3
MEAN_MOTION_DOT = .59567E-3
MEAN_MOTION_DDOT = 0

CCSDS_OMM_VERS = 2.0
CREATION_DATE  = 
ORIGINATOR     = 

OBJECT_NAME    = BOTAN
OBJECT_ID      = 1998-067XP
CENTER_NAME    = EARTH
REF_FRAME      = TEME
TIME_SYSTEM    = UTC
MEAN_ELEMENT_THEORY = SGP/SGP4

EPOCH          = 2026-01-14T04:21:18.002304
MEAN_MOTION    = 15.71604384
ECCENTRICITY   = .00048026
INCLINATION    = 51.6262
RA_OF_ASC_NODE = 334.4147
ARG_OF_PERICENTER = 100.6550
MEAN_ANOMALY   = 259.4989

EPHEMERIS_TYPE = 0
CLASSIFICATION_TYPE = U
NORAD_CAT_ID   = 65942
ELEMENT_SET_NO = 999
REV_AT_EPOCH   = 1495
BSTAR          = .83177755E-3
MEAN_MOTION_DOT = .110159E-2
MEAN_MOTION_DDOT = 0

CCSDS_OMM_VERS = 2.0
CREATION_DATE  = 
ORIGINATOR     = 

OBJECT_NAME    = E-KAGAKU-1
OBJECT_ID      = 1998-067XQ
CENTER_NAME    = EARTH
REF_FRAME      = TEME
TIME_SYSTEM    = UTC
MEAN_ELEMENT_THEORY = SGP/SGP4

EPOCH          = 2026-01-14T02:04:40.301184
MEAN_MOTION    = 15.64745579
ECCENTRICITY   = .00026699
INCLINATION    = 51.6308
RA_OF_ASC_NODE = 336.7992
ARG_OF_PERICENTER = 100.1600
MEAN_ANOMALY   = 259.9696

EPHEMERIS_TYPE = 0
CLASSIFICATION_TYPE = U
NORAD_CAT_ID   = 65943
ELEMENT_SET_NO = 999
REV_AT_EPOCH   = 1491
BSTAR          = .58887323E-3
MEAN_MOTION_DOT = .58277E-3
MEAN_MOTION_DDOT = 0

CCSDS_OMM_VERS = 2.0
CREATION_DATE  = 
ORIGINATOR     = 

OBJECT_NAME    = HRC MONOBLOCK CAMERA
OBJECT_ID      = 1998-067XR
CENTER_NAME    = EARTH
REF_FRAME      = TEME
TIME_SYSTEM    = UTC
MEAN_ELEMENT_THEORY = SGP/SGP4

EPOCH          = 2026-01-14T02:21:21.696192
MEAN_MOTION    = 15.56619278
ECCENTRICITY   = .00011226
INCLINATION    = 51.6307
RA_OF_ASC_NODE = 339.8707
ARG_OF_PERICENTER = 359.3584
MEAN_ANOMALY   = 0.7406

EPHEMERIS_TYPE = 0
CLASSIFICATION_TYPE = U
NORAD_CAT_ID   = 66052
ELEMENT_SET_NO = 999
REV_AT_EPOCH   = 1387
BSTAR          = .35733918E-3
MEAN_MOTION_DOT = .25517E-3
MEAN_MOTION_DDOT = 0

CCSDS_OMM_VERS = 2.0
CREATION_DATE  = 
ORIGINATOR     = 

OBJECT_NAME    = HTV-X1
OBJECT_ID      = 2025-241A
CENTER_NAME    = EARTH
REF_FRAME      = TEME
TIME_SYSTEM    = UTC
MEAN_ELEMENT_THEORY = SGP/SGP4

EPOCH          = 2026-01-14T04:14:12.571296
MEAN_MOTION    = 15.49283642
ECCENTRICITY   = .00077627
INCLINATION    = 51.6332
RA_OF_ASC_NODE = 341.8911
ARG_OF_PERICENTER = 16.2553
MEAN_ANOMALY   = 343.8684

EPHEMERIS_TYPE = 0
CLASSIFICATION_TYPE = U
NORAD_CAT_ID   = 66174
ELEMENT_SET_NO = 999
REV_AT_EPOCH   = 51
BSTAR          = .14457162E-3
MEAN_MOTION_DOT = .7605E-4
MEAN_MOTION_DDOT = 0

CCSDS_OMM_VERS = 2.0
CREATION_DATE  = 
ORIGINATOR     = 

OBJECT_NAME    = SZ-21 MODULE
OBJECT_ID      = 2025-246C
CENTER_NAME    = EARTH
REF_FRAME      = TEME
TIME_SYSTEM    = UTC
MEAN_ELEMENT_THEORY = SGP/SGP4

EPOCH          = 2026-01-13T17:37:06.898368
MEAN_MOTION    = 15.64448838
ECCENTRICITY   = .00018354
INCLINATION    = 41.4739
RA_OF_ASC_NODE = 180.5961
ARG_OF_PERICENTER = 161.6783
MEAN_ANOMALY   = 198.4124

EPHEMERIS_TYPE = 0
CLASSIFICATION_TYPE = U
NORAD_CAT_ID   = 66515
ELEMENT_SET_NO = 999
REV_AT_EPOCH   = 945
BSTAR          = .22944515E-3
MEAN_MOTION_DOT = .22409E-3
MEAN_MOTION_DDOT = 0

CCSDS_OMM_VERS = 2.0
CREATION_DATE  = 
ORIGINATOR     = 

OBJECT_NAME    = SHENZHOU-22
OBJECT_ID      = 2025-272A
CENTER_NAME    = EARTH
REF_FRAME      = TEME
TIME_SYSTEM    = UTC
MEAN_ELEMENT_THEORY = SGP/SGP4

EPOCH          = 2026-01-14T05:44:41.082432
MEAN_MOTION    = 15.60498345
ECCENTRICITY   = .00114434
INCLINATION    = 41.4651
RA_OF_ASC_NODE = 179.1985
ARG_OF_PERICENTER = 282.0781
MEAN_ANOMALY   = 77.8776

EPHEMERIS_TYPE = 0
CLASSIFICATION_TYPE = U
NORAD_CAT_ID   = 66645
ELEMENT_SET_NO = 999
REV_AT_EPOCH   = 26764
BSTAR          = .15508651E-3
MEAN_MOTION_DOT = .12865E-3
MEAN_MOTION_DDOT = 0

